[{"OBJECT_NAME":"GAOFEN-1 04","OBJECT_ID":"2018-031D","EPOCH":"2026-03-06T07:24:06.630048","MEAN_MOTION":14.76427598,"ECCENTRICITY":0.00018765,"INCLINATION":98.0655,"RA_OF_ASC_NODE":128.1132,"ARG_OF_PERICENTER":81.4204,"MEAN_ANOMALY":278.7218,"EPHEMERIS_TYPE":0,"CLASSIFICATION_TYPE":"U","NORAD_CAT_ID":43262,"ELEMENT_SET_NO":999,"REV_AT_EPOCH":42750,"BSTAR":0.00013307222,"MEAN_MOTION_DOT":8.74e-6,"MEAN_MOTION_DDOT":0},{"OBJECT_NAME":"SENTINEL-3B","OBJECT_ID":"2018-039A","EPOCH":"2026-03-06T04:03:08.202816","MEAN_MOTION":14.26733876,"ECCENTRICITY":8.941e-5,"INCLINATION":98.6237,"RA_OF_ASC_NODE":134.1545,"ARG_OF_PERICENTER":136.4451,"MEAN_ANOMALY":223.6801,"EPHEMERIS_TYPE":0,"CLASSIFICATION_TYPE":"U","NORAD_CAT_ID":43437,"ELEMENT_SET_NO":999,"REV_AT_EPOCH":40943,"BSTAR":7.8835999e-5,"MEAN_MOTION_DOT":1.47e-6,"MEAN_MOTION_DDOT":0},{"OBJECT_NAME":"GAOFEN-5 01","OBJECT_ID":"2018-043A","EPOCH":"2026-03-05T23:00:34.634880","MEAN_MOTION":14.60518524,"ECCENTRICITY":0.00027662,"INCLINATION":98.4461,"RA_OF_ASC_NODE":34.4465,"ARG_OF_PERICENTER":59.2726,"MEAN_ANOMALY":300.8746,"EPHEMERIS_TYPE":0,"CLASSIFICATION_TYPE":"U","NORAD_CAT_ID":43461,"ELEMENT_SET_NO":999,"REV_AT_EPOCH":41662,"BSTAR":0.00013699164,"MEAN_MOTION_DOT":6.16e-6,"MEAN_MOTION_DDOT":0},{"OBJECT_NAME":"GAOFEN-6","OBJECT_ID":"2018-048A","EPOCH":"2026-03-06T08:09:43.623072","MEAN_MOTION":14.76589528,"ECCENTRICITY":0.00129848,"INCLINATION":97.7879,"RA_OF_ASC_NODE":131.7389,"ARG_OF_PERICENTER":144.7873,"MEAN_ANOMALY":215.4198,"EPHEMERIS_TYPE":0,"CLASSIFICATION_TYPE":"U","NORAD_CAT_ID":43484,"ELEMENT_SET_NO":999,"REV_AT_EPOCH":41821,"BSTAR":0.00018323121,"MEAN_MOTION_DOT":1.231e-5,"MEAN_MOTION_DDOT":0},{"OBJECT_NAME":"GAOFEN-11 01","OBJECT_ID":"2018-063A","EPOCH":"2026-03-06T07:44:32.297856","MEAN_MOTION":15.52131429,"ECCENTRICITY":0.00041275,"INCLINATION":97.1418,"RA_OF_ASC_NODE":132.662,"ARG_OF_PERICENTER":14.9934,"MEAN_ANOMALY":345.1441,"EPHEMERIS_TYPE":0,"CLASSIFICATION_TYPE":"U","NORAD_CAT_ID":43585,"ELEMENT_SET_NO":999,"REV_AT_EPOCH":42437,"BSTAR":0.000355118,"MEAN_MOTION_DOT":0.00021403,"MEAN_MOTION_DDOT":0},{"OBJECT_NAME":"ICESAT-2","OBJECT_ID":"2018-070A","EPOCH":"2026-03-06T06:54:07.029504","MEAN_MOTION":15.28298862,"ECCENTRICITY":0.00033984,"INCLINATION":91.9986,"RA_OF_ASC_NODE":263.2534,"ARG_OF_PERICENTER":129.2277,"MEAN_ANOMALY":230.9275,"EPHEMERIS_TYPE":0,"CLASSIFICATION_TYPE":"U","NORAD_CAT_ID":43613,"ELEMENT_SET_NO":999,"REV_AT_EPOCH":41674,"BSTAR":0.00014943608,"MEAN_MOTION_DOT":4.119e-5,"MEAN_MOTION_DDOT":0},{"OBJECT_NAME":"HYSIS","OBJECT_ID":"2018-096A","EPOCH":"2026-03-06T06:50:28.473792","MEAN_MOTION":14.78648956,"ECCENTRICITY":0.00017717,"INCLINATION":97.9948,"RA_OF_ASC_NODE":132.7911,"ARG_OF_PERICENTER":101.9257,"MEAN_ANOMALY":258.2153,"EPHEMERIS_TYPE":0,"CLASSIFICATION_TYPE":"U","NORAD_CAT_ID":43719,"ELEMENT_SET_NO":999,"REV_AT_EPOCH":39221,"BSTAR":0.00027148315,"MEAN_MOTION_DOT":1.937e-5,"MEAN_MOTION_DDOT":0},{"OBJECT_NAME":"KAZSTSAT","OBJECT_ID":"2018-099AB","EPOCH":"2026-03-06T01:58:48.519264","MEAN_MOTION":14.99609958,"ECCENTRICITY":0.00069651,"INCLINATION":97.4405,"RA_OF_ASC_NODE":101.6329,"ARG_OF_PERICENTER":22.409,"MEAN_ANOMALY":337.7437,"EPHEMERIS_TYPE":0,"CLASSIFICATION_TYPE":"U","NORAD_CAT_ID":43783,"ELEMENT_SET_NO":999,"REV_AT_EPOCH":39585,"BSTAR":0.00010194377,"MEAN_MOTION_DOT":1.199e-5,"MEAN_MOTION_DDOT":0},{"OBJECT_NAME":"SAUDISAT 5A","OBJECT_ID":"2018-102A","EPOCH":"2026-03-06T07:35:20.889600","MEAN_MOTION":15.26877906,"ECCENTRICITY":0.00111874,"INCLINATION":97.3192,"RA_OF_ASC_NODE":128.8992,"ARG_OF_PERICENTER":133.1227,"MEAN_ANOMALY":227.095,"EPHEMERIS_TYPE":0,"CLASSIFICATION_TYPE":"U","NORAD_CAT_ID":43831,"ELEMENT_SET_NO":999,"REV_AT_EPOCH":39997,"BSTAR":0.00026270723,"MEAN_MOTION_DOT":6.876e-5,"MEAN_MOTION_DDOT":0},{"OBJECT_NAME":"SAUDISAT 5B","OBJECT_ID":"2018-102C","EPOCH":"2026-03-06T06:55:41.945088","MEAN_MOTION":15.27188538,"ECCENTRICITY":0.00118564,"INCLINATION":97.3289,"RA_OF_ASC_NODE":131.7582,"ARG_OF_PERICENTER":135.6325,"MEAN_ANOMALY":224.5867,"EPHEMERIS_TYPE":0,"CLASSIFICATION_TYPE":"U","NORAD_CAT_ID":43833,"ELEMENT_SET_NO":999,"REV_AT_EPOCH":40008,"BSTAR":0.00023294601,"MEAN_MOTION_DOT":6.147e-5,"MEAN_MOTION_DDOT":0},{"OBJECT_NAME":"GAOFEN-10R","OBJECT_ID":"2019-066A","EPOCH":"2026-03-06T07:48:23.498208","MEAN_MOTION":14.83139321,"ECCENTRICITY":0.00080642,"INCLINATION":98.0397,"RA_OF_ASC_NODE":18.2323,"ARG_OF_PERICENTER":115.275,"MEAN_ANOMALY":244.9299,"EPHEMERIS_TYPE":0,"CLASSIFICATION_TYPE":"U","NORAD_CAT_ID":44622,"ELEMENT_SET_NO":999,"REV_AT_EPOCH":34713,"BSTAR":0.000272007,"MEAN_MOTION_DOT":2.164e-5,"MEAN_MOTION_DDOT":0},{"OBJECT_NAME":"CARTOSAT-3","OBJECT_ID":"2019-081A","EPOCH":"2026-03-06T06:40:03.525312","MEAN_MOTION":15.19136415,"ECCENTRICITY":0.0012867,"INCLINATION":97.4429,"RA_OF_ASC_NODE":128.7359,"ARG_OF_PERICENTER":148.3182,"MEAN_ANOMALY":211.8829,"EPHEMERIS_TYPE":0,"CLASSIFICATION_TYPE":"U","NORAD_CAT_ID":44804,"ELEMENT_SET_NO":999,"REV_AT_EPOCH":34784,"BSTAR":0.00011058286,"MEAN_MOTION_DOT":2.259e-5,"MEAN_MOTION_DDOT":0},{"OBJECT_NAME":"GAOFEN-12 01","OBJECT_ID":"2019-082A","EPOCH":"2026-03-06T06:36:33.619104","MEAN_MOTION":14.80360483,"ECCENTRICITY":0.00019367,"INCLINATION":97.8143,"RA_OF_ASC_NODE":74.3634,"ARG_OF_PERICENTER":60.7117,"MEAN_ANOMALY":299.4289,"EPHEMERIS_TYPE":0,"CLASSIFICATION_TYPE":"U","NORAD_CAT_ID":44819,"ELEMENT_SET_NO":999,"REV_AT_EPOCH":33886,"BSTAR":0.00010344377,"MEAN_MOTION_DOT":7.38e-6,"MEAN_MOTION_DDOT":0},{"OBJECT_NAME":"CSG-1","OBJECT_ID":"2019-092A","EPOCH":"2026-03-06T07:12:24.625728","MEAN_MOTION":14.82167623,"ECCENTRICITY":0.00013076,"INCLINATION":97.8863,"RA_OF_ASC_NODE":250.3872,"ARG_OF_PERICENTER":87.4236,"MEAN_ANOMALY":272.7127,"EPHEMERIS_TYPE":0,"CLASSIFICATION_TYPE":"U","NORAD_CAT_ID":44873,"ELEMENT_SET_NO":999,"REV_AT_EPOCH":33623,"BSTAR":0.00010366094,"MEAN_MOTION_DOT":7.73e-6,"MEAN_MOTION_DDOT":0},{"OBJECT_NAME":"NEMO-HD","OBJECT_ID":"2020-061F","EPOCH":"2026-03-06T05:54:53.483904","MEAN_MOTION":15.4240609,"ECCENTRICITY":0.00025135,"INCLINATION":97.2047,"RA_OF_ASC_NODE":128.3339,"ARG_OF_PERICENTER":82.6057,"MEAN_ANOMALY":277.5477,"EPHEMERIS_TYPE":0,"CLASSIFICATION_TYPE":"U","NORAD_CAT_ID":46277,"ELEMENT_SET_NO":999,"REV_AT_EPOCH":30610,"BSTAR":0.00026480511,"MEAN_MOTION_DOT":0.00011361,"MEAN_MOTION_DDOT":0},{"OBJECT_NAME":"SENTINEL-6A","OBJECT_ID":"2020-086A","EPOCH":"2026-03-06T04:21:15.835392","MEAN_MOTION":12.80929611,"ECCENTRICITY":0.0007821,"INCLINATION":66.0447,"RA_OF_ASC_NODE":348.998,"ARG_OF_PERICENTER":270.8349,"MEAN_ANOMALY":89.177,"EPHEMERIS_TYPE":0,"CLASSIFICATION_TYPE":"U","NORAD_CAT_ID":46984,"ELEMENT_SET_NO":999,"REV_AT_EPOCH":24713,"BSTAR":7.4644151e-5,"MEAN_MOTION_DOT":-4.4e-7,"MEAN_MOTION_DDOT":0},{"OBJECT_NAME":"GAOFEN-12 02","OBJECT_ID":"2021-026A","EPOCH":"2026-03-06T06:36:43.878240","MEAN_MOTION":14.80198017,"ECCENTRICITY":0.00043056,"INCLINATION":97.9915,"RA_OF_ASC_NODE":63.8928,"ARG_OF_PERICENTER":191.3798,"MEAN_ANOMALY":168.7317,"EPHEMERIS_TYPE":0,"CLASSIFICATION_TYPE":"U","NORAD_CAT_ID":48079,"ELEMENT_SET_NO":999,"REV_AT_EPOCH":26653,"BSTAR":8.9821193e-5,"MEAN_MOTION_DOT":6.3e-6,"MEAN_MOTION_DDOT":0}]
