GAOFEN-1 04             
1 43262U 18031D   26065.30841007  .00000874  00000+0  13307-3 0  9997
2 43262  98.0655 128.1132 0001876  81.4204 278.7218 14.76427598427507
SENTINEL-3B             
1 43437U 18039A   26065.16884494  .00000147  00000+0  78836-4 0  9992
2 43437  98.6237 134.1545 0000894 136.4451 223.6801 14.26733876409435
GAOFEN-5 01             
1 43461U 18043A   26064.95873420  .00000616  00000+0  13699-3 0  9993
2 43461  98.4461  34.4465 0002766  59.2726 300.8746 14.60518524416623
GAOFEN-6                
1 43484U 18048A   26065.34008823  .00001231  00000+0  18323-3 0  9997
2 43484  97.7879 131.7389 0012984 144.7873 215.4198 14.76589528418213
GAOFEN-11 01            
1 43585U 18063A   26065.32259604  .00021403  00000+0  35512-3 0  9991
2 43585  97.1418 132.6620 0004127  14.9934 345.1441 15.52131429424376
ICESAT-2                
1 43613U 18070A   26065.28758136  .00004119  00000+0  14944-3 0  9991
2 43613  91.9986 263.2534 0003398 129.2277 230.9275 15.28298862416740
HYSIS                   
1 43719U 18096A   26065.28505178  .00001937  00000+0  27148-3 0  9997
2 43719  97.9948 132.7911 0001771 101.9257 258.2153 14.78648956392218
KAZSTSAT                
1 43783U 18099AB  26065.08250601  .00001199  00000+0  10194-3 0  9990
2 43783  97.4405 101.6329 0006965  22.4090 337.7437 14.99609958395855
SAUDISAT 5A             
1 43831U 18102A   26065.31621400  .00006876  00000+0  26271-3 0  9994
2 43831  97.3192 128.8992 0011187 133.1227 227.0950 15.26877906399971
SAUDISAT 5B             
1 43833U 18102C   26065.28867992  .00006147  00000+0  23295-3 0  9994
2 43833  97.3289 131.7582 0011856 135.6325 224.5867 15.27188538400088
GAOFEN-10R              
1 44622U 19066A   26065.32527197  .00002164  00000+0  27201-3 0  9992
2 44622  98.0397  18.2323 0008064 115.2750 244.9299 14.83139321347136
CARTOSAT-3              
1 44804U 19081A   26065.27781858  .00002259  00000+0  11058-3 0  9999
2 44804  97.4429 128.7359 0012867 148.3182 211.8829 15.19136415347846
GAOFEN-12 01            
1 44819U 19082A   26065.27538911  .00000738  00000+0  10344-3 0  9993
2 44819  97.8143  74.3634 0001936  60.7117 299.4289 14.80360483338866
CSG-1                   
1 44873U 19092A   26065.30028502  .00000773  00000+0  10366-3 0  9991
2 44873  97.8863 250.3872 0001307  87.4236 272.7127 14.82167623336232
NEMO-HD                 
1 46277U 20061F   26065.24645236  .00011361  00000+0  26481-3 0  9991
2 46277  97.2047 128.3339 0002513  82.6057 277.5477 15.42406090306105
SENTINEL-6A             
1 46984U 20086A   26065.18143328 -.00000044  00000+0  74644-4 0  9993
2 46984  66.0447 348.9980 0007821 270.8349  89.1770 12.80929611247130
GAOFEN-12 02            
1 48079U 21026A   26065.27550785  .00000630  00000+0  89821-4 0  9997
2 48079  97.9915  63.8928 0004305 191.3798 168.7317 14.80198017266530
